[{"OBJECT_ID":"2012-045A","OBJECT_NAME":"INTELSAT 21","NORAD_CAT_ID":"38749","OBJECT_TYPE":"PAYLOAD","PERIOD":"1436.126","INCLINATION":"0.0137","APOGEE":"35798.945","PERIGEE":"35775.392","ECCENTRICITY":"0.0002793","MEAN_MOTION":"1.00269744","TLE_LINE1":"1 38749U 12045A   16239.23111532 -.00000313  00000-0  00000+0 0  9999","TLE_LINE2":"2 38749   0.0137 155.0327 0002793 356.7599 208.2225  1.00269744 14720","LAUNCH_DATE":"2012-08-19","LAUNCH_SITE":"SEA LAUNCH","OWNER":"INTERNATIONAL TELECOMMUNICATIONS SATELLITE ORGANIZATION (INTELSAT)","ORBIT_TYPE":"Geosynchronous","OPERATIONAL_STATUS":"Operational","satInfo":{"lng":-66.39806824988553,"lat":-0.09467441970069089,"elevation":-8.662073354411534,"azimuth":21.398068249885505,"range":42672.53121241156,"height":35807.72017294037,"velocity":3.0735639380055413},"x":-279,"y":-115,"dx":1.2305933077876017,"dy":-2.8164579513702135},{"OBJECT_ID":"2012-045B","OBJECT_NAME":"BLOCK DM-SL R/B","NORAD_CAT_ID":"38750","OBJECT_TYPE":"ROCKET BODY","PERIOD":"609.667","INCLINATION":"0.5405","APOGEE":"34581.411","PERIGEE":"296.535","ECCENTRICITY":"0.7197531","MEAN_MOTION":"2.36194186","TLE_LINE1":"1 38750U 12045B   16238.55740687 +.00000890 +00000-0 +50507-3 0  9994","TLE_LINE2":"2 38750 000.5405 320.8917 7197531 267.7269 042.6962 02.36194186034209","LAUNCH_DATE":"2012-08-19","LAUNCH_SITE":"SEA LAUNCH","OWNER":"SEA LAUNCH DEMO","ORBIT_TYPE":"Highly Elliptical Orbit","OPERATIONAL_STATUS":"N/A, derelict rocket body","satInfo":{"lng":118.62156576885089,"lat":-0.07240065454146129,"elevation":-11.791086373393242,"azimuth":196.37843423114913,"range":31299.141248766056,"height":24260.591468500825,"velocity":3.0320427814344786},"x":178,"y":92,"dx":-1.4524160803621984,"dy":2.6615354511924574},{"OBJECT_ID":"2012-051A","OBJECT_NAME":"ASTRA 2F","NORAD_CAT_ID":"38778","OBJECT_TYPE":"PAYLOAD","PERIOD":"1436.100","INCLINATION":"0.0937","APOGEE":"35802.803","PERIGEE":"35770.547","ECCENTRICITY":"0.0003825","MEAN_MOTION":"1.00271506","TLE_LINE1":"1 38778U 12051A   16238.99207131  .00000122  00000-0  00000+0 0  9998","TLE_LINE2":"2 38778   0.0937 251.4785 0003825 308.9113 159.5880  1.00271506 14372","LAUNCH_DATE":"2012-09-28","LAUNCH_SITE":"FRENCH GUIANA","OWNER":"SOCIÉTÉ EUROPÉENNE DES SATELLITES","ORBIT_TYPE":"Geosynchronous","OPERATIONAL_STATUS":"Operational","satInfo":{"lng":71.10997491005276,"lat":-1.499555044628006,"elevation":-10.039462475995327,"azimuth":243.89002508994727,"range":42787.228775302974,"height":35768.34963882074,"velocity":3.075049594570625},"x":283,"y":-93,"dx":0.9955556228302499,"dy":2.9094327644611484},{"OBJECT_ID":"2012-051B","OBJECT_NAME":"GSAT 10","NORAD_CAT_ID":"38779","OBJECT_TYPE":"PAYLOAD","PERIOD":"1436.087","INCLINATION":"0.0497","APOGEE":"35791.573","PERIGEE":"35781.251","ECCENTRICITY":"0.0001224","MEAN_MOTION":"1.00272443","TLE_LINE1":"1 38779U 12051B   16237.84305602 -.00000190 +00000-0 +00000-0 0  9991","TLE_LINE2":"2 38779 000.0497 274.1640 0001224 197.6484 248.1959 01.00272443014172","LAUNCH_DATE":"2012-09-28","LAUNCH_SITE":"FRENCH GUIANA","OWNER":"INDIA","ORBIT_TYPE":"Geosynchronous","OPERATIONAL_STATUS":"Operational","satInfo":{"lng":67.5018045122557,"lat":-0.7863945004313746,"elevation":-9.342329022218948,"azimuth":247.4981954877443,"range":42721.85253967216,"height":35781.0222315784,"velocity":3.0750515173906017},"x":277,"y":-110,"dx":1.176681793123687,"dy":2.8410142189608036},{"OBJECT_ID":"2012-057A","OBJECT_NAME":"INTELSAT 23","NORAD_CAT_ID":"38867","OBJECT_TYPE":"PAYLOAD","PERIOD":"1436.079","INCLINATION":"0.0405","APOGEE":"35794.108","PERIGEE":"35778.423","ECCENTRICITY":"0.000186","MEAN_MOTION":"1.00272966","TLE_LINE1":"1 38867U 12057A   16238.21971858 -.00000310 +00000-0 +00000-0 0  9993","TLE_LINE2":"2 38867 000.0405 262.3620 0001860 249.4785 208.1642 01.00272966014076","LAUNCH_DATE":"2012-10-14","LAUNCH_SITE":"TYURATAM MISSILE AND SPACE COMPLEX","OWNER":"INTERNATIONAL TELECOMMUNICATIONS SATELLITE ORGANIZATION (INTELSAT)","ORBIT_TYPE":"Geosynchronous","OPERATIONAL_STATUS":"Operational","satInfo":{"lng":-56.42638333643941,"lat":2.24413705105312,"elevation":-6.372792343770471,"azimuth":11.426383336439379,"range":42408.22188304704,"height":35800.34958621858,"velocity":3.073946009880203},"x":-254,"y":-158,"dx":1.6999165821701603,"dy":-2.5611379668657723},{"OBJECT_ID":"2012-059A","OBJECT_NAME":"BEIDOU G6","NORAD_CAT_ID":"38953","OBJECT_TYPE":"PAYLOAD","PERIOD":"1436.083","INCLINATION":"1.0517","APOGEE":"35809.188","PERIGEE":"35763.474","ECCENTRICITY":"0.0005421","MEAN_MOTION":"1.00272732","TLE_LINE1":"1 38953U 12059A   16238.92569468 -.00000204 +00000-0 +10000-3 0  9995","TLE_LINE2":"2 38953 001.0517 078.8649 0005421 134.0078 179.0434 01.00272732014121","LAUNCH_DATE":"2012-10-25","LAUNCH_SITE":"Xichang Space Center, China","OWNER":"PEOPLES REPUBLIC OF CHINA","ORBIT_TYPE":"Geosynchronous","OPERATIONAL_STATUS":"Operational","satInfo":{"lng":66.43256547494848,"lat":1.880312398952624,"elevation":-6.7296397204655625,"azimuth":248.5674345250515,"range":42450.225621929996,"height":35802.302534958944,"velocity":3.0735042312238994},"x":275,"y":-115,"dx":1.2288734507674217,"dy":2.8171436422997997},{"OBJECT_ID":"2012-061B","OBJECT_NAME":"YAMAL 300K","NORAD_CAT_ID":"38978","OBJECT_TYPE":"PAYLOAD","PERIOD":"1436.087","INCLINATION":"0.011","APOGEE":"35792.959","PERIGEE":"35779.862","ECCENTRICITY":"0.0001553","MEAN_MOTION":"1.00272448","TLE_LINE1":"1 38978U 12061B   16238.71656884  .00000044  00000-0  00000+0 0  9997","TLE_LINE2":"2 38978   0.0110 165.2738 0001553  65.7468 184.3106  1.00272448 13950","LAUNCH_DATE":"2012-11-02","LAUNCH_SITE":"TYURATAM MISSILE AND SPACE COMPLEX","OWNER":"COMMONWEALTH OF INDEPENDENT STATES","ORBIT_TYPE":"Geosynchronous","OPERATIONAL_STATUS":"Operational","satInfo":{"lng":-63.3824895624274,"lat":0.0349417332848373,"elevation":-8.535224964979182,"azimuth":18.382489562427377,"range":42659.551342446975,"height":35808.959307263154,"velocity":3.0739399484324568},"x":-273,"y":-128,"dx":1.3772244886963578,"dy":-2.748155656854973},{"OBJECT_ID":"2012-062A","OBJECT_NAME":"STARONE C3","NORAD_CAT_ID":"38991","OBJECT_TYPE":"PAYLOAD","PERIOD":"1436.117","INCLINATION":"0.0028","APOGEE":"35795.808","PERIGEE":"35778.200","ECCENTRICITY":"0.0002088","MEAN_MOTION":"1.00270331","TLE_LINE1":"1 38991U 12062A   16239.38394649 -.00000278  00000-0  00000+0 0  9995","TLE_LINE2":"2 38991   0.0028  78.8855 0002088 119.2576 200.1317  1.00270331 13940","LAUNCH_DATE":"2012-11-10","LAUNCH_SITE":"FRENCH GUIANA","OWNER":"BRAZIL","ORBIT_TYPE":"Geosynchronous","OPERATIONAL_STATUS":"Operational","satInfo":{"lng":-93.16953798889799,"lat":-1.8441771001392748,"elevation":-10.368790037120883,"azimuth":48.169537988897964,"range":42854.17167331781,"height":35798.0346204844,"velocity":3.074344335794073},"x":-304,"y":15,"dx":-0.16998253884621764,"dy":-3.0696415151474112},{"OBJECT_ID":"2012-062B","OBJECT_NAME":"EUTE 21B","NORAD_CAT_ID":"38992","OBJECT_TYPE":"PAYLOAD","PERIOD":"1436.091","INCLINATION":"0.0663","APOGEE":"35795.260","PERIGEE":"35777.712","ECCENTRICITY":"0.0002081","MEAN_MOTION":"1.00272179","TLE_LINE1":"1 38992U 12062B   16238.01311834 +.00000104 +00000-0 +00000-0 0  9998","TLE_LINE2":"2 38992 000.0663 004.5604 0002081 154.9412 200.5019 01.00272179013936","LAUNCH_DATE":"2012-11-10","LAUNCH_SITE":"FRENCH GUIANA","OWNER":"EUROPEAN TELECOMMUNICATIONS SATELLITE ORGANIZATION (EUTELSAT)","ORBIT_TYPE":"Geosynchronous","OPERATIONAL_STATUS":"Operational","satInfo":{"lng":44.07292476170958,"lat":0.11212102689733029,"elevation":-8.468274838267329,"azimuth":270.9270752382904,"range":42609.38643418409,"height":35766.78355811409,"velocity":3.075330259916001},"x":208,"y":-205,"dx":2.2094866251310363,"dy":2.1391178230574583},{"OBJECT_ID":"2012-065A","OBJECT_NAME":"ECHOSTAR 16","NORAD_CAT_ID":"39008","OBJECT_TYPE":"PAYLOAD","PERIOD":"1436.090","INCLINATION":"0.0153","APOGEE":"35794.601","PERIGEE":"35778.343","ECCENTRICITY":"0.0001928","MEAN_MOTION":"1.00272229","TLE_LINE1":"1 39008U 12065A   16239.24054277 -.00000310  00000-0  00000+0 0  9990","TLE_LINE2":"2 39008   0.0153 127.9517 0001928  27.4792 204.5711  1.00272229 13890","LAUNCH_DATE":"2012-11-20","LAUNCH_SITE":"TYURATAM MISSILE AND SPACE COMPLEX","OWNER":"UNITED STATES OF AMERICA","ORBIT_TYPE":"Geosynchronous","OPERATIONAL_STATUS":"Operational","satInfo":{"lng":-71.77728880346959,"lat":-0.874483379785364,"elevation":-9.423396770254378,"azimuth":26.777288803469588,"range":42755.28413069638,"height":35805.08920454256,"velocity":3.0737933635778796},"x":-289,"y":-90,"dx":0.961210375991666,"dy":-2.9196370074139995},{"OBJECT_ID":"2012-067A","OBJECT_NAME":"CHINASAT 12","NORAD_CAT_ID":"39017","OBJECT_TYPE":"PAYLOAD","PERIOD":"1436.096","INCLINATION":"0.0117","APOGEE":"35799.112","PERIGEE":"35774.058","ECCENTRICITY":"0.0002971","MEAN_MOTION":"1.00271826","TLE_LINE1":"1 39017U 12067A   16239.23462874 -.00000235  00000-0  00000+0 0  9993","TLE_LINE2":"2 39017   0.0117 111.0490 0002971  46.0930 349.7295  1.00271826 13794","LAUNCH_DATE":"2012-11-27","LAUNCH_SITE":"Xichang Space Center, China","OWNER":"PEOPLES REPUBLIC OF CHINA","ORBIT_TYPE":"Geosynchronous","OPERATIONAL_STATUS":"Operational","satInfo":{"lng":62.99226167782603,"lat":-0.05176129635914021,"elevation":-8.624878278565095,"azimuth":252.00773832217396,"range":42644.53758858433,"height":35784.16598529475,"velocity":3.074821312085438},"x":267,"y":-130,"dx":1.396309671131229,"dy":2.7394972902998487}]